NORAD_CAT_ID,OBJECT_NAME,OBJECT_TYPE,EPOCH,MEAN_MOTION,ECCENTRICITY,INCLINATION,RA_OF_ASC_NODE,ARG_OF_PERICENTER,MEAN_ANOMALY,BSTAR,MEAN_MOTION_DOT,MEAN_MOTION_DDOT,TLE_LINE0,TLE_LINE1,TLE_LINE2,SEMIMAJOR_AXIS,PERIOD,APOGEE,PERIGEE,DECAYED
51462.0,STARLINK-3166,PAYLOAD,2024-07-17 23:07:12,15.08800719,0.0001458,53.2166,91.4083,102.9237,257.1918,-0.00034519,-5.771e-05,0.0,0 STARLINK-3166,1 51462U 22010G   24199.96333740 -.00005771  00000-0 -34519-3 0  9990,2 51462  53.2166  91.4083 0001458 102.9237 257.1918 15.08800719136282,6918.0,95.44,540.874,538.857,0.0
51462.0,STARLINK-3166,PAYLOAD,2024-07-18 10:14:54,15.08815828,0.0001599,53.2175,89.3269,99.8494,260.2678,-0.00022163,-3.811e-05,0.0,0 STARLINK-3166,1 51462U 22010G   24200.42701768 -.00003811  00000-0 -22163-3 0  9998,2 51462  53.2175  89.3269 0001599  99.8494 260.2678 15.08815828136824,6917.954,95.439,540.925,538.713,0.0
51462.0,STARLINK-3166,PAYLOAD,2024-07-18 21:22:35,15.08837636,0.000181,53.2176,87.2451,100.4287,259.6909,0.00013142,1.804e-05,0.0,0 STARLINK-3166,1 51462U 22010G   24200.89069227  .00001804  00000-0  13142-3 0  9991,2 51462  53.2176  87.2451 0001810 100.4287 259.6909 15.08837636136897,6917.888,95.438,541.005,538.5,0.0
51462.0,STARLINK-3166,PAYLOAD,2024-07-19 02:08:44,15.08847446,0.0001494,53.2165,86.3515,108.9979,251.1176,0.00046454,7.114e-05,0.0,0 STARLINK-3166,1 51462U 22010G   24201.08940939  .00007114  00000-0  46454-3 0  9993,2 51462  53.2165  86.3515 0001494 108.9979 251.1176 15.08847446136922,6917.858,95.437,540.756,538.689,0.0
51462.0,STARLINK-3166,PAYLOAD,2024-07-19 22:48:45,15.08862038,0.0001859,53.2178,82.4864,107.4597,252.6599,0.0006874,0.00010675,0.0,0 STARLINK-3166,1 51462U 22010G   24201.95052813  .00010675  00000-0  68740-3 0  9992,2 51462  53.2178  82.4864 0001859 107.4597 252.6599 15.08862038136586,6917.813,95.436,540.964,538.392,0.0
51462.0,STARLINK-3166,PAYLOAD,2024-07-20 01:59:31,15.08870151,0.0001868,53.2178,81.8888,104.8468,255.2731,0.00060152,9.306e-05,0.0,0 STARLINK-3166,1 51462U 22010G   24202.08300359  .00009306  00000-0  60152-3 0  9996,2 51462  53.2178  81.8888 0001868 104.8468 255.2731 15.08870151136608,6917.788,95.436,540.945,538.361,0.0
51462.0,STARLINK-3166,PAYLOAD,2024-07-20 21:04:08,15.08856034,0.0001605,53.2174,78.3228,107.0809,253.0359,0.00019571,2.829e-05,0.0,0 STARLINK-3166,1 51462U 22010G   24202.87788070  .00002829  00000-0  19571-3 0  9995,2 51462  53.2174  78.3228 0001605 107.0809 253.0359 15.08856034137197,6917.831,95.437,540.807,538.586,0.0
51462.0,STARLINK-3166,PAYLOAD,2024-07-20 22:39:32,15.08859251,0.0001377,53.2169,78.0261,89.1473,270.9677,0.0003441,5.195e-05,0.0,0 STARLINK-3166,1 51462U 22010G   24202.94412048  .00005195  00000-0  34410-3 0  9990,2 51462  53.2169  78.0261 0001377  89.1473 270.9677 15.08859251136732,6917.822,95.436,540.639,538.734,0.0
51462.0,STARLINK-3166,PAYLOAD,2024-07-21 01:50:18,15.08858967,0.000136,53.2172,77.4319,83.6025,276.5122,0.00057794,8.927e-05,0.0,0 STARLINK-3166,1 51462U 22010G   24203.07659960  .00008927  00000-0  57794-3 0  9997,2 51462  53.2172  77.4319 0001360  83.6025 276.5122 15.08858967136759,6917.822,95.436,540.628,538.747,0.0
51462.0,STARLINK-3166,PAYLOAD,2024-07-21 20:54:56,15.08837276,0.0001212,53.2157,73.8567,76.784,283.3288,0.00060856,9.41e-05,0.0,0 STARLINK-3166,1 51462U 22010G   24203.87148727  .00009410  00000-0  60856-3 0  9990,2 51462  53.2157  73.8567 0001212  76.7840 283.3288 15.08837276137346,6917.889,95.438,540.592,538.915,0.0
51462.0,STARLINK-3166,PAYLOAD,2024-07-21 22:30:19,15.08837149,0.0001375,53.2168,73.5668,83.9688,276.1461,0.0010255,0.00016069,0.0,0 STARLINK-3166,1 51462U 22010G   24203.93772866  .00016069  00000-0  10255-2 0  9999,2 51462  53.2168  73.5668 0001375  83.9688 276.1461 15.08837149136887,6917.889,95.438,540.705,538.803,0.0
51462.0,STARLINK-3166,PAYLOAD,2024-07-22 14:24:10,15.08847033,0.0001518,53.2168,70.5926,105.1821,254.9339,0.00066365,0.00010292,0.0,0 STARLINK-3166,1 51462U 22010G   24204.60012652  .00010292  00000-0  66365-3 0  9990,2 51462  53.2168  70.5926 0001518 105.1821 254.9339 15.08847033136988,6917.859,95.437,540.774,538.674,0.0
51462.0,STARLINK-3166,PAYLOAD,2024-07-23 01:31:52,15.08863784,0.0001441,53.2165,68.5123,100.8951,259.2203,0.00085385,0.00013336,0.0,0 STARLINK-3166,1 51462U 22010G   24205.06380008  .00013336  00000-0  85385-3 0  9999,2 51462  53.2165  68.5123 0001441 100.8951 259.2203 15.08863784137522,6917.808,95.436,540.67,538.676,0.0
51462.0,STARLINK-3166,PAYLOAD,2024-07-23 22:11:53,15.08842731,0.0001235,53.2154,64.6409,122.1399,237.9713,0.00051347,7.894e-05,0.0,0 STARLINK-3166,1 51462U 22010G   24205.92492241  .00007894  00000-0  51347-3 0  9990,2 51462  53.2154  64.6409 0001235 122.1399 237.9713 15.08842731137188,6917.872,95.437,540.591,538.883,0.0
51462.0,STARLINK-3166,PAYLOAD,2024-07-23 23:47:16,15.08842607,0.0001258,53.2154,64.3437,122.6089,237.5025,0.00054482,8.394e-05,0.0,0 STARLINK-3166,1 51462U 22010G   24205.99116270  .00008394  00000-0  54482-3 0  9991,2 51462  53.2154  64.3437 0001258 122.6089 237.5025 15.08842607137669,6917.872,95.437,540.608,538.867,0.0
51462.0,STARLINK-3166,PAYLOAD,2024-07-24 22:02:40,15.08840938,0.0001311,53.2151,60.1815,133.3708,226.7393,0.00034578,5.22e-05,0.0,0 STARLINK-3166,1 51462U 22010G   24206.91852415  .00005220  00000-0  34578-3 0  9991,2 51462  53.2151  60.1815 0001311 133.3708 226.7393 15.08840938137334,6917.878,95.437,540.649,538.836,0.0
51462.0,STARLINK-3166,PAYLOAD,2024-07-25 13:56:32,15.08837584,0.0001276,53.2142,57.2125,102.7402,257.3732,0.00018022,2.581e-05,0.0,0 STARLINK-3166,1 51462U 22010G   24207.58092952  .00002581  00000-0  18022-3 0  9990,2 51462  53.2142  57.2125 0001276 102.7402 257.3732 15.08837584137909,6917.888,95.438,540.635,538.87,0.0
51462.0,STARLINK-3166,PAYLOAD,2024-07-26 13:47:19,15.0884918,0.0001293,53.2152,52.751,92.3177,267.7963,0.00032568,4.9e-05,0.0,0 STARLINK-3166,1 51462U 22010G   24208.57452577  .00004900  00000-0  32568-3 0  9991,2 51462  53.2152  52.7510 0001293  92.3177 267.7963 15.08849180137580,6917.852,95.437,540.612,538.823,0.0
51462.0,STARLINK-3166,PAYLOAD,2024-07-26 20:08:51,15.08858823,0.0001584,53.2134,51.562,92.4588,267.6585,0.00045728,7.001e-05,0.0,0 STARLINK-3166,1 51462U 22010G   24208.83948107  .00007001  00000-0  45728-3 0  9996,2 51462  53.2134  51.5620 0001584  92.4588 267.6585 15.08858823138099,6917.823,95.436,540.784,538.592,0.0
51462.0,STARLINK-3166,PAYLOAD,2024-07-26 21:44:14,15.0886075,0.0001328,53.2149,51.2631,97.3873,262.7271,0.00050157,7.708e-05,0.0,0 STARLINK-3166,1 51462U 22010G   24208.90571984  .00007708  00000-0  50157-3 0  9995,2 51462  53.2149  51.2631 0001328  97.3873 262.7271 15.08860750137630,6917.817,95.436,540.601,538.763,0.0
51462.0,STARLINK-3166,PAYLOAD,2024-07-27 21:35:02,15.0883372,0.0001493,53.2163,46.8033,83.5296,276.5866,-9.7627e-05,-1.841e-05,0.0,0 STARLINK-3166,1 51462U 22010G   24209.89933097 -.00001841  00000-0 -97627-4 0  9999,2 51462  53.2163  46.8033 0001493  83.5296 276.5866 15.08833720137787,6917.9,95.438,540.797,538.732,0.0
51462.0,STARLINK-3166,PAYLOAD,2024-07-28 19:50:25,15.08849908,0.0001303,53.2166,42.641,97.0852,263.0288,0.00025168,3.721e-05,0.0,0 STARLINK-3166,1 51462U 22010G   24210.82668623  .00003721  00000-0  25168-3 0  9991,2 51462  53.2166  42.6410 0001303  97.0852 263.0288 15.08849908138393,6917.85,95.437,540.617,538.814,0.0
51462.0,STARLINK-3166,PAYLOAD,2024-07-29 13:19:40,15.08843791,0.0001541,53.2172,39.3709,82.6007,277.5161,0.00030101,4.506e-05,0.0,0 STARLINK-3166,1 51462U 22010G   24211.55533159  .00004506  00000-0  30101-3 0  9992,2 51462  53.2172  39.3709 0001541  82.6007 277.5161 15.08843791138507,6917.869,95.437,540.8,538.668,0.0
51462.0,STARLINK-3166,PAYLOAD,2024-07-29 19:41:12,15.08852841,0.0001434,53.2176,38.1819,91.6421,268.4735,0.00041023,6.249e-05,0.0,0 STARLINK-3166,1 51462U 22010G   24211.82028769  .00006249  00000-0  41023-3 0  9999,2 51462  53.2176  38.1819 0001434  91.6421 268.4735 15.08852841138075,6917.841,95.437,540.698,538.714,0.0
51462.0,STARLINK-3166,PAYLOAD,2024-07-30 05:13:31,15.08852347,0.0001604,53.2176,36.3956,82.8582,277.2592,0.00040701,6.198e-05,0.0,0 STARLINK-3166,1 51462U 22010G   24212.21772656  .00006198  00000-0  40701-3 0  9999,2 51462  53.2176  36.3956 0001604  82.8582 277.2592 15.08852347138133,6917.843,95.437,540.817,538.598,0.0
51462.0,STARLINK-3166,PAYLOAD,2024-07-30 21:07:23,15.08843068,0.0001756,53.2177,33.4234,84.0878,276.0314,0.00044912,6.868e-05,0.0,0 STARLINK-3166,1 51462U 22010G   24212.88012997  .00006868  00000-0  44912-3 0  9999,2 51462  53.2177  33.4234 0001756  84.0878 276.0314 15.08843068138703,6917.871,95.437,540.951,538.521,0.0
51462.0,STARLINK-3166,PAYLOAD,2024-07-31 05:04:18,15.08836198,8.95e-05,53.2173,31.9363,106.4338,253.6753,7.8661e-05,9.64e-06,0.0,0 STARLINK-3166,1 51462U 22010G   24213.21132803  .00000964  00000-0  78661-4 0  9996,2 51462  53.2173  31.9363 0000895 106.4338 253.6753 15.08836198138285,6917.892,95.438,540.376,539.138,0.0
51462.0,STARLINK-3166,PAYLOAD,2024-07-31 20:58:10,15.08844786,0.0001426,53.2179,28.9613,89.1918,270.9238,0.00010569,1.395e-05,0.0,0 STARLINK-3166,1 51462U 22010G   24213.87373078  .00001395  00000-0  10569-3 0  9990,2 51462  53.2179  28.9613 0001426  89.1918 270.9238 15.08844786138380,6917.866,95.437,540.717,538.744,0.0
51462.0,STARLINK-3166,PAYLOAD,2024-08-01 11:16:38,15.08839409,0.0001536,53.2175,26.2839,85.2096,274.9071,0.00010671,1.411e-05,0.0,0 STARLINK-3166,1 51462U 22010G   24214.46989530  .00001411  00000-0  10671-3 0  9995,2 51462  53.2175  26.2839 0001536  85.2096 274.9071 15.08839409138940,6917.882,95.438,540.81,538.685,0.0
51462.0,STARLINK-3166,PAYLOAD,2024-08-01 20:48:57,15.08852144,0.0001288,53.2152,24.5028,86.7517,273.3622,0.00036355,5.505e-05,0.0,0 STARLINK-3166,1 51462U 22010G   24214.86732694  .00005505  00000-0  36355-3 0  9991,2 51462  53.2152  24.5028 0001288  86.7517 273.3622 15.08852144139008,6917.843,95.437,540.599,538.817,0.0
